{
  "type": "FeatureCollection",
  "features": [
    {
      "type": "Feature",
      "properties": {
        "norad_id": 35836,
        "name": "COSMOS 2251 DEB",
        "group": "cosmos-2251-debris",
        "lat": -24.334195154222947,
        "lon": 157.41072269317007,
        "alt_km": 669.2298788038979,
        "timestamp": "2025-12-16T21:38:57.572066+00:00",
        "meta_object_name": "COSMOS 2251 DEB",
        "meta_object_id": "1993-036ATJ",
        "meta_epoch": "2025-12-15T04:57:37.173600",
        "meta_mean_motion": 14.7102941,
        "meta_eccentricity": 0.00240331,
        "meta_inclination": 74.0312,
        "meta_ra_of_asc_node": 168.1432,
        "meta_arg_of_pericenter": 226.3716,
        "meta_mean_anomaly": 133.5463,
        "meta_ephemeris_type": 0,
        "meta_classification_type": "U",
        "meta_norad_cat_id": 35836,
        "meta_element_set_no": 999,
        "meta_rev_at_epoch": 63556,
        "meta_bstar": 0.0012109146,
        "meta_mean_motion_dot": 7.444e-05,
        "meta_mean_motion_ddot": 0,
        "tle_line1": "1 35836U 93036ATJ 25349.20668025  .00007444  00000+0  12109-2 0  9991",
        "tle_line2": "2 35836  74.0312 168.1432 0024033 226.3716 133.5463 14.71029410635567"
      },
      "geometry": {
        "type": "Point",
        "coordinates": [
          157.41072269317007,
          -24.334195154222947
        ]
      }
    },
    {
      "type": "Feature",
      "properties": {
        "norad_id": 35837,
        "name": "COSMOS 2251 DEB",
        "group": "cosmos-2251-debris",
        "lat": 73.4268802306285,
        "lon": -80.25787202354641,
        "alt_km": 752.4656173819349,
        "timestamp": "2025-12-16T21:38:57.572075+00:00",
        "meta_object_name": "COSMOS 2251 DEB",
        "meta_object_id": "1993-036ATK",
        "meta_epoch": "2025-12-16T07:45:09.179424",
        "meta_mean_motion": 13.63495457,
        "meta_eccentricity": 0.0422034,
        "meta_inclination": 73.7224,
        "meta_ra_of_asc_node": 201.6662,
        "meta_arg_of_pericenter": 121.883,
        "meta_mean_anomaly": 6.4581,
        "meta_ephemeris_type": 0,
        "meta_classification_type": "U",
        "meta_norad_cat_id": 35837,
        "meta_element_set_no": 999,
        "meta_rev_at_epoch": 58025,
        "meta_bstar": 0.0018990914,
        "meta_mean_motion_dot": 2.722e-05,
        "meta_mean_motion_ddot": 0,
        "tle_line1": "1 35837U 93036ATK 25350.32302291  .00002722  00000+0  18991-2 0  9996",
        "tle_line2": "2 35837  73.7224 201.6662 0422034 121.8830   6.4581 13.63495457580255"
      },
      "geometry": {
        "type": "Point",
        "coordinates": [
          -80.25787202354641,
          73.4268802306285
        ]
      }
    },
    {
      "type": "Feature",
      "properties": {
        "norad_id": 35839,
        "name": "COSMOS 2251 DEB",
        "group": "cosmos-2251-debris",
        "lat": 70.57692164226435,
        "lon": 7.823313129193357,
        "alt_km": 393.1971814641729,
        "timestamp": "2025-12-16T21:38:57.572085+00:00",
        "meta_object_name": "COSMOS 2251 DEB",
        "meta_object_id": "1993-036ATM",
        "meta_epoch": "2025-12-15T14:25:31.039680",
        "meta_mean_motion": 15.5439678,
        "meta_eccentricity": 0.00035051,
        "meta_inclination": 74.2054,
        "meta_ra_of_asc_node": 317.2687,
        "meta_arg_of_pericenter": 130.154,
        "meta_mean_anomaly": 229.9984,
        "meta_ephemeris_type": 0,
        "meta_classification_type": "U",
        "meta_norad_cat_id": 35839,
        "meta_element_set_no": 999,
        "meta_rev_at_epoch": 88612,
        "meta_bstar": 0.0039077103,
        "meta_mean_motion_dot": 0.00265243,
        "meta_mean_motion_ddot": 0,
        "tle_line1": "1 35839U 93036ATM 25349.60105370  .00265243  00000+0  39077-2 0  9993",
        "tle_line2": "2 35839  74.2054 317.2687 0003505 130.1540 229.9984 15.54396780886129"
      },
      "geometry": {
        "type": "Point",
        "coordinates": [
          7.823313129193357,
          70.57692164226435
        ]
      }
    },
    {
      "type": "Feature",
      "properties": {
        "norad_id": 35840,
        "name": "COSMOS 2251 DEB",
        "group": "cosmos-2251-debris",
        "lat": -67.883689840919,
        "lon": 105.29068199844505,
        "alt_km": 821.2003066408834,
        "timestamp": "2025-12-16T21:38:57.572096+00:00",
        "meta_object_name": "COSMOS 2251 DEB",
        "meta_object_id": "1993-036ATN",
        "meta_epoch": "2025-12-12T04:26:56.474304",
        "meta_mean_motion": 14.37821687,
        "meta_eccentricity": 0.01162768,
        "meta_inclination": 73.9307,
        "meta_ra_of_asc_node": 159.2062,
        "meta_arg_of_pericenter": 61.7798,
        "meta_mean_anomaly": 299.5037,
        "meta_ephemeris_type": 0,
        "meta_classification_type": "U",
        "meta_norad_cat_id": 35840,
        "meta_element_set_no": 999,
        "meta_rev_at_epoch": 85283,
        "meta_bstar": 0.0026691111,
        "meta_mean_motion_dot": 8.683e-05,
        "meta_mean_motion_ddot": 0,
        "tle_line1": "1 35840U 93036ATN 25346.18537586  .00008683  00000+0  26691-2 0  9994",
        "tle_line2": "2 35840  73.9307 159.2062 0116276  61.7798 299.5037 14.37821687852835"
      },
      "geometry": {
        "type": "Point",
        "coordinates": [
          105.29068199844505,
          -67.883689840919
        ]
      }
    },
    {
      "type": "Feature",
      "properties": {
        "norad_id": 35883,
        "name": "COSMOS 2251 DEB",
        "group": "cosmos-2251-debris",
        "lat": 59.53079331144757,
        "lon": -146.94079081146393,
        "alt_km": 701.0905338756338,
        "timestamp": "2025-12-16T21:38:57.572106+00:00",
        "meta_object_name": "COSMOS 2251 DEB",
        "meta_object_id": "1993-036ATW",
        "meta_epoch": "2025-12-16T04:41:35.789568",
        "meta_mean_motion": 14.50615193,
        "meta_eccentricity": 0.00835028,
        "meta_inclination": 74.0253,
        "meta_ra_of_asc_node": 63.5249,
        "meta_arg_of_pericenter": 192.1269,
        "meta_mean_anomaly": 197.0315,
        "meta_ephemeris_type": 0,
        "meta_classification_type": "U",
        "meta_norad_cat_id": 35883,
        "meta_element_set_no": 999,
        "meta_rev_at_epoch": 62436,
        "meta_bstar": 0.00022216854,
        "meta_mean_motion_dot": 8.82e-06,
        "meta_mean_motion_ddot": 0,
        "tle_line1": "1 35883U 93036ATW 25350.19555312  .00000882  00000+0  22217-3 0  9998",
        "tle_line2": "2 35883  74.0253  63.5249 0083502 192.1269 197.0315 14.50615193624369"
      },
      "geometry": {
        "type": "Point",
        "coordinates": [
          -146.94079081146393,
          59.53079331144757
        ]
      }
    },
    {
      "type": "Feature",
      "properties": {
        "norad_id": 35884,
        "name": "COSMOS 2251 DEB",
        "group": "cosmos-2251-debris",
        "lat": -5.6013817713111145,
        "lon": 150.08501948943933,
        "alt_km": 783.8980892985228,
        "timestamp": "2025-12-16T21:38:57.572116+00:00",
        "meta_object_name": "COSMOS 2251 DEB",
        "meta_object_id": "1993-036ATX",
        "meta_epoch": "2025-12-16T07:19:09.379488",
        "meta_mean_motion": 14.25680751,
        "meta_eccentricity": 0.01084022,
        "meta_inclination": 73.9902,
        "meta_ra_of_asc_node": 329.5521,
        "meta_arg_of_pericenter": 115.5254,
        "meta_mean_anomaly": 245.7151,
        "meta_ephemeris_type": 0,
        "meta_classification_type": "U",
        "meta_norad_cat_id": 35884,
        "meta_element_set_no": 999,
        "meta_rev_at_epoch": 22408,
        "meta_bstar": 0.00087030299,
        "meta_mean_motion_dot": 2.171e-05,
        "meta_mean_motion_ddot": 0,
        "tle_line1": "1 35884U 93036ATX 25350.30496967  .00002171  00000+0  87030-3 0  9999",
        "tle_line2": "2 35884  73.9902 329.5521 0108402 115.5254 245.7151 14.25680751224085"
      },
      "geometry": {
        "type": "Point",
        "coordinates": [
          150.08501948943933,
          -5.6013817713111145
        ]
      }
    },
    {
      "type": "Feature",
      "properties": {
        "norad_id": 35885,
        "name": "COSMOS 2251 DEB",
        "group": "cosmos-2251-debris",
        "lat": 26.385005702680274,
        "lon": 98.96420971470698,
        "alt_km": 779.1714995150696,
        "timestamp": "2025-12-16T21:38:57.572126+00:00",
        "meta_object_name": "COSMOS 2251 DEB",
        "meta_object_id": "1993-036ATY",
        "meta_epoch": "2025-12-16T05:54:43.131456",
        "meta_mean_motion": 14.37527479,
        "meta_eccentricity": 0.00234205,
        "meta_inclination": 74.0286,
        "meta_ra_of_asc_node": 288.3388,
        "meta_arg_of_pericenter": 8.0187,
        "meta_mean_anomaly": 352.1336,
        "meta_ephemeris_type": 0,
        "meta_classification_type": "U",
        "meta_norad_cat_id": 35885,
        "meta_element_set_no": 999,
        "meta_rev_at_epoch": 65066,
        "meta_bstar": 0.00030857672,
        "meta_mean_motion_dot": 9.01e-06,
        "meta_mean_motion_ddot": 0,
        "tle_line1": "1 35885U 93036ATY 25350.24633254  .00000901  00000+0  30858-3 0  9990",
        "tle_line2": "2 35885  74.0286 288.3388 0023420   8.0187 352.1336 14.37527479650668"
      },
      "geometry": {
        "type": "Point",
        "coordinates": [
          98.96420971470698,
          26.385005702680274
        ]
      }
    }
  ]
}